RADUGA 32               
1 23448U 94087A   26094.91448588 -.00000158  00000+0  00000+0 0  9990
2 23448  14.3276 351.5311 0008584 271.6057 339.3803  1.00275054132142
SL-12 R/B(2)            
1 23451U 94087D   26095.82269563  .00000116  00000+0  00000+0 0  9992
2 23451  14.3497 351.5393 0008298 134.3875  36.5883  1.00073501 46552
UFO 4 (USA 108)         
1 23467U 95003A   26095.60372335 -.00000020  00000+0  00000+0 0  9991
2 23467   9.6978  13.4688 0003466 355.1294 215.0000  1.00269563114221
HIMAWARI-5 AKM          
1 23524U 95011D   26095.09402557 -.00000305  00000+0  00000+0 0  9993
2 23524  13.6394 348.7641 0220966  13.2542 179.0882  1.01254870 46349
TITAN 4 CENTAUR R/B     
1 23568U 95022B   26094.79723918 -.00000108  00000+0  00000+0 0  9997
2 23568  18.2618   6.9119 0009835 341.4853  18.4514  1.00560765 25168
SL-6 R/B(2)             
1 23587U 95026D   26092.33841638 -.00000519  00000+0  00000+0 0  9996
2 23587  66.6481 211.3665 6479262  33.1575 354.2545  2.03332122229045
TDRS 7                  
1 23613U 95035B   26095.70947626 -.00000235  00000+0  00000+0 0  9999
2 23613  13.4077 348.6886 0009366  55.7053 133.9890  1.00267993112522
IUS R/B(2)              
1 23615U 95035D   26095.31364376  .00000078  00000+0  00000+0 0  9997
2 23615  15.7115 342.3214 0008887 182.2025 356.1421  1.00498310112674
TITAN 34D TRANSTAGE DEB 
1 23619U 88077N   26092.56752303 -.00000148  00000+0  25343-2 0  9993
2 23619  26.5698 163.5199 7348389 193.7466 122.1432  2.01462892  8996
ARIANE 42L+3 R/B        
1 23637U 95040B   26095.75934245 -.00000161  00000+0 -56631-3 0  9993
2 23637   4.7638   3.0021 7202180 320.4919 292.2644  2.18801408244994
KOREASAT 1              
1 23639U 95041A   26095.62674044 -.00000340  00000+0  00000+0 0  9993
2 23639  14.7096 359.1687 0004654 314.2533 229.4198  0.99669644111800
MOLNIYA 3-47            
1 23642U 95042A   26086.31898578  .00000392  00000+0  00000+0 0  9990
2 23642  64.9050 276.9818 6733686 270.4176  18.9215  2.01922929224864
SL-6 R/B(2)             
1 23645U 95042D   26091.79077350  .00001118  00000+0  00000+0 0  9995
2 23645  64.8598 323.1439 7030158 271.8287  16.0127  1.99218328220404
ATLAS 2 CENTAUR R/B(2)  
1 23648U 95038C   26095.09874852 -.00000278  00000+0  00000+0 0  9999
2 23648  13.7600 345.8461 0022351 303.5338  56.2159  1.01266266 25343
COSMOS 2319             
1 23653U 95045A   26095.58733615 -.00000373  00000+0  00000+0 0  9994
2 23653  14.3636 353.2653 0006265 269.8196 260.0329  1.00190732112066
SL-12 R/B(2)            
1 23656U 95045D   26095.36642132  .00000104  00000+0  00000+0 0  9997
2 23656  14.4222 353.5841 0018644  51.9814 128.6781  1.00152645111931
TELSTAR 4 (TELSTAR 402R)
1 23670U 95049A   26095.22749278 -.00000186  00000+0  00000+0 0  9992
2 23670  13.5291  13.2245 0004590 337.8984 191.3974  1.00291952111778
