[{"OBJECT_NAME":"RADUGA 32","OBJECT_ID":"1994-087A","EPOCH":"2026-04-04T21:56:51.580032","MEAN_MOTION":1.00275054,"ECCENTRICITY":0.0008584,"INCLINATION":14.3276,"RA_OF_ASC_NODE":351.5311,"ARG_OF_PERICENTER":271.6057,"MEAN_ANOMALY":339.3803,"EPHEMERIS_TYPE":0,"CLASSIFICATION_TYPE":"U","NORAD_CAT_ID":23448,"ELEMENT_SET_NO":999,"REV_AT_EPOCH":13214,"BSTAR":0,"MEAN_MOTION_DOT":-1.58e-6,"MEAN_MOTION_DDOT":0},{"OBJECT_NAME":"SL-12 R/B(2)","OBJECT_ID":"1994-087D","EPOCH":"2026-04-05T19:44:40.902432","MEAN_MOTION":1.00073501,"ECCENTRICITY":0.0008298,"INCLINATION":14.3497,"RA_OF_ASC_NODE":351.5393,"ARG_OF_PERICENTER":134.3875,"MEAN_ANOMALY":36.5883,"EPHEMERIS_TYPE":0,"CLASSIFICATION_TYPE":"U","NORAD_CAT_ID":23451,"ELEMENT_SET_NO":999,"REV_AT_EPOCH":4655,"BSTAR":0,"MEAN_MOTION_DOT":1.16e-6,"MEAN_MOTION_DDOT":0},{"OBJECT_NAME":"UFO 4 (USA 108)","OBJECT_ID":"1995-003A","EPOCH":"2026-04-05T14:29:21.697440","MEAN_MOTION":1.00269563,"ECCENTRICITY":0.0003466,"INCLINATION":9.6978,"RA_OF_ASC_NODE":13.4688,"ARG_OF_PERICENTER":355.1294,"MEAN_ANOMALY":215,"EPHEMERIS_TYPE":0,"CLASSIFICATION_TYPE":"U","NORAD_CAT_ID":23467,"ELEMENT_SET_NO":999,"REV_AT_EPOCH":11422,"BSTAR":0,"MEAN_MOTION_DOT":-2.0e-7,"MEAN_MOTION_DDOT":0},{"OBJECT_NAME":"HIMAWARI-5 AKM","OBJECT_ID":"1995-011D","EPOCH":"2026-04-05T02:15:23.809248","MEAN_MOTION":1.0125487,"ECCENTRICITY":0.02209666,"INCLINATION":13.6394,"RA_OF_ASC_NODE":348.7641,"ARG_OF_PERICENTER":13.2542,"MEAN_ANOMALY":179.0882,"EPHEMERIS_TYPE":0,"CLASSIFICATION_TYPE":"U","NORAD_CAT_ID":23524,"ELEMENT_SET_NO":999,"REV_AT_EPOCH":4634,"BSTAR":0,"MEAN_MOTION_DOT":-3.05e-6,"MEAN_MOTION_DDOT":0},{"OBJECT_NAME":"TITAN 4 CENTAUR R/B","OBJECT_ID":"1995-022B","EPOCH":"2026-04-04T19:08:01.465152","MEAN_MOTION":1.00560765,"ECCENTRICITY":0.0009835,"INCLINATION":18.2618,"RA_OF_ASC_NODE":6.9119,"ARG_OF_PERICENTER":341.4853,"MEAN_ANOMALY":18.4514,"EPHEMERIS_TYPE":0,"CLASSIFICATION_TYPE":"U","NORAD_CAT_ID":23568,"ELEMENT_SET_NO":999,"REV_AT_EPOCH":2516,"BSTAR":0,"MEAN_MOTION_DOT":-1.08e-6,"MEAN_MOTION_DDOT":0},{"OBJECT_NAME":"SL-6 R/B(2)","OBJECT_ID":"1995-026D","EPOCH":"2026-04-02T08:07:19.175232","MEAN_MOTION":2.03332122,"ECCENTRICITY":0.64792627,"INCLINATION":66.6481,"RA_OF_ASC_NODE":211.3665,"ARG_OF_PERICENTER":33.1575,"MEAN_ANOMALY":354.2545,"EPHEMERIS_TYPE":0,"CLASSIFICATION_TYPE":"U","NORAD_CAT_ID":23587,"ELEMENT_SET_NO":999,"REV_AT_EPOCH":22904,"BSTAR":0,"MEAN_MOTION_DOT":-5.19e-6,"MEAN_MOTION_DDOT":0},{"OBJECT_NAME":"TDRS 7","OBJECT_ID":"1995-035B","EPOCH":"2026-04-05T17:01:38.748864","MEAN_MOTION":1.00267993,"ECCENTRICITY":0.0009366,"INCLINATION":13.4077,"RA_OF_ASC_NODE":348.6886,"ARG_OF_PERICENTER":55.7053,"MEAN_ANOMALY":133.989,"EPHEMERIS_TYPE":0,"CLASSIFICATION_TYPE":"U","NORAD_CAT_ID":23613,"ELEMENT_SET_NO":999,"REV_AT_EPOCH":11252,"BSTAR":0,"MEAN_MOTION_DOT":-2.35e-6,"MEAN_MOTION_DDOT":0},{"OBJECT_NAME":"IUS R/B(2)","OBJECT_ID":"1995-035D","EPOCH":"2026-04-05T07:31:38.820864","MEAN_MOTION":1.0049831,"ECCENTRICITY":0.0008887,"INCLINATION":15.7115,"RA_OF_ASC_NODE":342.3214,"ARG_OF_PERICENTER":182.2025,"MEAN_ANOMALY":356.1421,"EPHEMERIS_TYPE":0,"CLASSIFICATION_TYPE":"U","NORAD_CAT_ID":23615,"ELEMENT_SET_NO":999,"REV_AT_EPOCH":11267,"BSTAR":0,"MEAN_MOTION_DOT":7.8e-7,"MEAN_MOTION_DDOT":0},{"OBJECT_NAME":"TITAN 34D TRANSTAGE DEB","OBJECT_ID":"1988-077N","EPOCH":"2026-04-02T13:37:13.989792","MEAN_MOTION":2.01462892,"ECCENTRICITY":0.73483893,"INCLINATION":26.5698,"RA_OF_ASC_NODE":163.5199,"ARG_OF_PERICENTER":193.7466,"MEAN_ANOMALY":122.1432,"EPHEMERIS_TYPE":0,"CLASSIFICATION_TYPE":"U","NORAD_CAT_ID":23619,"ELEMENT_SET_NO":999,"REV_AT_EPOCH":899,"BSTAR":0.0025343186,"MEAN_MOTION_DOT":-1.48e-6,"MEAN_MOTION_DDOT":0},{"OBJECT_NAME":"ARIANE 42L+3 R/B","OBJECT_ID":"1995-040B","EPOCH":"2026-04-05T18:13:27.187680","MEAN_MOTION":2.18801408,"ECCENTRICITY":0.720218,"INCLINATION":4.7638,"RA_OF_ASC_NODE":3.0021,"ARG_OF_PERICENTER":320.4919,"MEAN_ANOMALY":292.2644,"EPHEMERIS_TYPE":0,"CLASSIFICATION_TYPE":"U","NORAD_CAT_ID":23637,"ELEMENT_SET_NO":999,"REV_AT_EPOCH":24499,"BSTAR":-0.00056631,"MEAN_MOTION_DOT":-1.61e-6,"MEAN_MOTION_DDOT":0},{"OBJECT_NAME":"KOREASAT 1","OBJECT_ID":"1995-041A","EPOCH":"2026-04-05T15:02:30.374016","MEAN_MOTION":0.99669644,"ECCENTRICITY":0.0004654,"INCLINATION":14.7096,"RA_OF_ASC_NODE":359.1687,"ARG_OF_PERICENTER":314.2533,"MEAN_ANOMALY":229.4198,"EPHEMERIS_TYPE":0,"CLASSIFICATION_TYPE":"U","NORAD_CAT_ID":23639,"ELEMENT_SET_NO":999,"REV_AT_EPOCH":11180,"BSTAR":0,"MEAN_MOTION_DOT":-3.4e-6,"MEAN_MOTION_DDOT":0},{"OBJECT_NAME":"MOLNIYA 3-47","OBJECT_ID":"1995-042A","EPOCH":"2026-03-27T07:39:20.371392","MEAN_MOTION":2.01922929,"ECCENTRICITY":0.6733686,"INCLINATION":64.905,"RA_OF_ASC_NODE":276.9818,"ARG_OF_PERICENTER":270.4176,"MEAN_ANOMALY":18.9215,"EPHEMERIS_TYPE":0,"CLASSIFICATION_TYPE":"U","NORAD_CAT_ID":23642,"ELEMENT_SET_NO":999,"REV_AT_EPOCH":22486,"BSTAR":0,"MEAN_MOTION_DOT":3.92e-6,"MEAN_MOTION_DDOT":0},{"OBJECT_NAME":"SL-6 R/B(2)","OBJECT_ID":"1995-042D","EPOCH":"2026-04-01T18:58:42.830400","MEAN_MOTION":1.99218328,"ECCENTRICITY":0.70301581,"INCLINATION":64.8598,"RA_OF_ASC_NODE":323.1439,"ARG_OF_PERICENTER":271.8287,"MEAN_ANOMALY":16.0127,"EPHEMERIS_TYPE":0,"CLASSIFICATION_TYPE":"U","NORAD_CAT_ID":23645,"ELEMENT_SET_NO":999,"REV_AT_EPOCH":22040,"BSTAR":0,"MEAN_MOTION_DOT":1.118e-5,"MEAN_MOTION_DDOT":0},{"OBJECT_NAME":"ATLAS 2 CENTAUR R/B(2)","OBJECT_ID":"1995-038C","EPOCH":"2026-04-05T02:22:11.872128","MEAN_MOTION":1.01266266,"ECCENTRICITY":0.0022351,"INCLINATION":13.76,"RA_OF_ASC_NODE":345.8461,"ARG_OF_PERICENTER":303.5338,"MEAN_ANOMALY":56.2159,"EPHEMERIS_TYPE":0,"CLASSIFICATION_TYPE":"U","NORAD_CAT_ID":23648,"ELEMENT_SET_NO":999,"REV_AT_EPOCH":2534,"BSTAR":0,"MEAN_MOTION_DOT":-2.78e-6,"MEAN_MOTION_DDOT":0},{"OBJECT_NAME":"COSMOS 2319","OBJECT_ID":"1995-045A","EPOCH":"2026-04-05T14:05:45.843360","MEAN_MOTION":1.00190732,"ECCENTRICITY":0.0006265,"INCLINATION":14.3636,"RA_OF_ASC_NODE":353.2653,"ARG_OF_PERICENTER":269.8196,"MEAN_ANOMALY":260.0329,"EPHEMERIS_TYPE":0,"CLASSIFICATION_TYPE":"U","NORAD_CAT_ID":23653,"ELEMENT_SET_NO":999,"REV_AT_EPOCH":11206,"BSTAR":0,"MEAN_MOTION_DOT":-3.73e-6,"MEAN_MOTION_DDOT":0},{"OBJECT_NAME":"SL-12 R/B(2)","OBJECT_ID":"1995-045D","EPOCH":"2026-04-05T08:47:38.802048","MEAN_MOTION":1.00152645,"ECCENTRICITY":0.00186444,"INCLINATION":14.4222,"RA_OF_ASC_NODE":353.5841,"ARG_OF_PERICENTER":51.9814,"MEAN_ANOMALY":128.6781,"EPHEMERIS_TYPE":0,"CLASSIFICATION_TYPE":"U","NORAD_CAT_ID":23656,"ELEMENT_SET_NO":999,"REV_AT_EPOCH":11193,"BSTAR":0,"MEAN_MOTION_DOT":1.04e-6,"MEAN_MOTION_DDOT":0},{"OBJECT_NAME":"TELSTAR 4 (TELSTAR 402R)","OBJECT_ID":"1995-049A","EPOCH":"2026-04-05T05:27:35.376192","MEAN_MOTION":1.00291952,"ECCENTRICITY":0.000459,"INCLINATION":13.5291,"RA_OF_ASC_NODE":13.2245,"ARG_OF_PERICENTER":337.8984,"MEAN_ANOMALY":191.3974,"EPHEMERIS_TYPE":0,"CLASSIFICATION_TYPE":"U","NORAD_CAT_ID":23670,"ELEMENT_SET_NO":999,"REV_AT_EPOCH":11177,"BSTAR":0,"MEAN_MOTION_DOT":-1.86e-6,"MEAN_MOTION_DDOT":0}]
